FLOCK 4BE-29            
1 60509U 24149AT  26064.17915699  .00027397  00000+0  68266-3 0  9993
2 60509  97.3853 148.7630 0001941 314.0175  46.0911 15.40201077 86385
TRANSPORTER-11 OBJECT AU
1 60510U 24149AU  26064.20268294  .00019093  00000+0  52815-3 0  9998
2 60510  97.3780 147.3163 0002597 312.2288  47.8736 15.37052402 86325
FLOCK 4BE-2             
1 60511U 24149AV  26064.21951843  .00049687  00000+0  11334-2 0  9991
2 60511  97.3857 149.3645 0002671 291.0280  69.0682 15.42740010 86429
FLOCK 4BE-13            
1 60512U 24149AW  26064.21915304  .00022309  00000+0  58606-3 0  9990
2 60512  97.3769 147.7732 0003428 286.0348  74.0519 15.38618220 86361
FLOCK 4BE-27            
1 60513U 24149AX  26064.18283246  .00013296  00000+0  42626-3 0  9990
2 60513  97.3876 146.1156 0002941 329.1152  30.9916 15.32469971 86201
FLOCK 4BE-9             
1 60514U 24149AY  26064.20103325  .00020323  00000+0  55576-3 0  9990
2 60514  97.3836 147.7072 0001631 323.6072  36.5062 15.37398865 86322
FLOCK 4BE-8             
1 60515U 24149AZ  26064.22615040  .00318118  00000+0  19832-2 0  9991
2 60515  97.3680 150.7389 0004783 241.6358 118.4426 15.76005804 86552
FLOCK 4BE-6             
1 60516U 24149BA  26064.22189609  .00019187  00000+0  54120-3 0  9993
2 60516  97.3841 147.2598 0002310 313.4115  46.6936 15.36444505 86298
FLOCK 4BE-14            
1 60517U 24149BB  26064.22357186  .00021067  00000+0  57424-3 0  9991
2 60517  97.3755 147.3323 0003259 310.3813  49.7147 15.37489143 86335
FLOCK 4BE-1             
1 60518U 24149BC  26064.20886043  .00023032  00000+0  60231-3 0  9993
2 60518  97.3826 148.2487 0003063 305.1814  54.9144 15.38752835 86362
FLOCK 4BE-28            
1 60519U 24149BD  26064.17608411  .00028384  00000+0  69405-3 0  9998
2 60519  97.3790 148.6377 0003530 306.0671  54.0248 15.40763356 86409
IPERDRONE.0             
1 60520U 24149BE  26064.20888899  .00056124  00000+0  86100-3 0  9998
2 60520  97.3823 153.3267 0002799 251.8238 108.2711 15.54123153 86701
TRANSPORTER-11 OBJECT BF
1 60521U 24149BF  26064.21691006  .00081152  00000+0  10280-2 0  9996
2 60521  97.3832 154.5125 0003194 252.8772 107.2134 15.59204822 86775
CONNECTA IOT-2          
1 60522U 24149BG  26064.20795359  .00006533  00000+0  28104-3 0  9997
2 60522  97.3899 143.9812 0005657 344.1129  15.9930 15.22957186 86060
PTD-R (TYVAK-0127)      
1 60523U 24149BH  26064.22146725  .00140962  00000+0  12434-2 0  9990
2 60523  97.3773 157.2345 0003935 256.6752 103.4070 15.68258698 86977
CONNECTA IOT-4          
1 60524U 24149BJ  26064.19428137  .00021613  00000+0  57494-3 0  9994
2 60524  97.3848 147.6253 0004721 306.4950  53.5860 15.38232999 86324
